start=new Date('2023-04-18T00:00:00.000Z').valueOf();
sats=[{"COUNTRY_CODE":"US","TIME_SYSTEM":"UTC","MEAN_ELEMENT_THEORY":"SGP4","OBJECT_ID":"2022-125AB","BSTAR":"0.00015269000000","MEAN_ANOMALY":"272.4391","ECCENTRICITY":"0.00010070","PERIAPSIS":"539.042","OBJECT_NAME":"STARLINK-5115","FILE":"3889391","GP_ID":"230267958","OBJECT_TYPE":"PAYLOAD","SITE":"AFWTR","REF_FRAME":"TEME","NORAD_CAT_ID":"53989","RA_OF_ASC_NODE":"278.8216","DECAY_DATE":null,"MEAN_MOTION_DOT":"0.00002143","TLE_LINE1":"1 53989U 22125AB  23107.77112116  .00002143  00000-0  15269-3 0  9991","CENTER_NAME":"EARTH","APOAPSIS":"540.435","TLE_LINE2":"2 53989  53.2149 278.8216 0001007  87.6717 272.4391 15.08842152 29902","MEAN_MOTION":"15.08842152","EPHEMERIS_TYPE":"0","SEMIMAJOR_AXIS":"6917.874","CLASSIFICATION_TYPE":"U","ELEMENT_SET_NO":"999","RCS_SIZE":"LARGE","PERIOD":"95.437","INCLINATION":"53.2149","LAUNCH_DATE":"2022-10-05","EPOCH":"2023-04-17T18:30:24.868224","MEAN_MOTION_DDOT":"0.0000000000000","REV_AT_EPOCH":"2990","ARG_OF_PERICENTER":"87.6717"},{"RCS_SIZE":"LARGE","PERIOD":"95.437","LAUNCH_DATE":"2022-10-05","INCLINATION":"53.2157","EPOCH":"2023-04-17T18:39:38.801088","MEAN_MOTION_DDOT":"0.0000000000000","ARG_OF_PERICENTER":"93.6108","REV_AT_EPOCH":"2989","EPHEMERIS_TYPE":"0","SEMIMAJOR_AXIS":"6917.867","CLASSIFICATION_TYPE":"U","ELEMENT_SET_NO":"999","CENTER_NAME":"EARTH","APOAPSIS":"540.638","TLE_LINE2":"2 53990  53.2157 278.8567 0001309  93.6108 266.5033 15.08844255 29899","MEAN_MOTION":"15.08844255","MEAN_MOTION_DOT":"0.00010581","TLE_LINE1":"1 53990U 22125AC  23107.77753242  .00010581  00000-0  68179-3 0  9997","DECAY_DATE":null,"RA_OF_ASC_NODE":"278.8567","OBJECT_NAME":"STARLINK-5075","FILE":"3889391","GP_ID":"230267707","SITE":"AFWTR","OBJECT_TYPE":"PAYLOAD","REF_FRAME":"TEME","NORAD_CAT_ID":"53990","MEAN_ANOMALY":"266.5033","ECCENTRICITY":"0.00013090","PERIAPSIS":"538.827","COUNTRY_CODE":"US","TIME_SYSTEM":"UTC","MEAN_ELEMENT_THEORY":"SGP4","OBJECT_ID":"2022-125AC","BSTAR":"0.00068179000000"},{"COUNTRY_CODE":"US","TIME_SYSTEM":"UTC","MEAN_ELEMENT_THEORY":"SGP4","OBJECT_ID":"2022-125AD","BSTAR":"-0.00007946700000","MEAN_ANOMALY":"257.1596","PERIAPSIS":"543.967","ECCENTRICITY":"0.00011570","FILE":"3889391","GP_ID":"230266957","OBJECT_NAME":"STARLINK-5118","REF_FRAME":"TEME","NORAD_CAT_ID":"53991","SITE":"AFWTR","OBJECT_TYPE":"PAYLOAD","DECAY_DATE":null,"RA_OF_ASC_NODE":"266.2533","MEAN_MOTION_DOT":"-0.00001492","TLE_LINE1":"1 53991U 22125AD  23107.81076154 -.00001492  00000-0 -79467-4 0  9999","CENTER_NAME":"EARTH","MEAN_MOTION":"15.07198195","TLE_LINE2":"2 53991  53.2166 266.2533 0001157 102.9524 257.1596 15.07198195 30077","APOAPSIS":"545.569","EPHEMERIS_TYPE":"0","SEMIMAJOR_AXIS":"6922.903","ELEMENT_SET_NO":"999","CLASSIFICATION_TYPE":"U","RCS_SIZE":"LARGE","PERIOD":"95.542","ARG_OF_PERICENTER":"102.9524","REV_AT_EPOCH":"3007","LAUNCH_DATE":"2022-10-05","INCLINATION":"53.2166","EPOCH":"2023-04-17T19:27:29.797056","MEAN_MOTION_DDOT":"0.0000000000000"},{"PERIOD":"95.437","RCS_SIZE":"LARGE","REV_AT_EPOCH":"2989","ARG_OF_PERICENTER":"89.2230","INCLINATION":"53.2158","LAUNCH_DATE":"2022-10-05","MEAN_MOTION_DDOT":"0.0000000000000","EPOCH":"2023-04-17T18:29:01.970016","EPHEMERIS_TYPE":"0","SEMIMAJOR_AXIS":"6917.865","ELEMENT_SET_NO":"999","CLASSIFICATION_TYPE":"U","CENTER_NAME":"EARTH","MEAN_MOTION":"15.08845041","APOAPSIS":"540.566","TLE_LINE2":"2 53992  53.2158 278.8102 0001208  89.2230 270.8900 15.08845041 29897","MEAN_MOTION_DOT":"0.00004249","TLE_LINE1":"1 53992U 22125AE  23107.77016169  .00004249  00000-0  28486-3 0  9990","RA_OF_ASC_NODE":"278.8102","DECAY_DATE":null,"FILE":"3889391","GP_ID":"230267207","OBJECT_NAME":"STARLINK-5108","REF_FRAME":"TEME","NORAD_CAT_ID":"53992","SITE":"AFWTR","OBJECT_TYPE":"PAYLOAD","MEAN_ANOMALY":"270.8900","PERIAPSIS":"538.894","ECCENTRICITY":"0.00012080","COUNTRY_CODE":"US","TIME_SYSTEM":"UTC","MEAN_ELEMENT_THEORY":"SGP4","OBJECT_ID":"2022-125AE","BSTAR":"0.00028486000000"},{"MEAN_ANOMALY":"274.7616","ECCENTRICITY":"0.00011480","PERIAPSIS":"538.938","COUNTRY_CODE":"US","TIME_SYSTEM":"UTC","MEAN_ELEMENT_THEORY":"SGP4","OBJECT_ID":"2022-125AF","BSTAR":"0.00013620000000","DECAY_DATE":null,"RA_OF_ASC_NODE":"273.6754","GP_ID":"230267458","FILE":"3889391","OBJECT_NAME":"STARLINK-5121","REF_FRAME":"TEME","NORAD_CAT_ID":"53993","OBJECT_TYPE":"PAYLOAD","SITE":"AFWTR","CENTER_NAME":"EARTH","MEAN_MOTION":"15.08844350","APOAPSIS":"540.526","TLE_LINE2":"2 53993  53.2153 273.6754 0001148  85.3507 274.7616 15.08844350 29963","MEAN_MOTION_DOT":"0.00001881","TLE_LINE1":"1 53993U 22125AF  23107.74666884  .00001881  00000-0  13620-3 0  9996","PERIOD":"95.437","RCS_SIZE":"LARGE","ARG_OF_PERICENTER":"85.3507","REV_AT_EPOCH":"2996","LAUNCH_DATE":"2022-10-05","INCLINATION":"53.2153","MEAN_MOTION_DDOT":"0.0000000000000","EPOCH":"2023-04-17T17:55:12.187776","EPHEMERIS_TYPE":"0","SEMIMAJOR_AXIS":"6917.867","ELEMENT_SET_NO":"999","CLASSIFICATION_TYPE":"U"},{"DECAY_DATE":null,"RA_OF_ASC_NODE":"278.7420","OBJECT_TYPE":"PAYLOAD","SITE":"AFWTR","NORAD_CAT_ID":"53994","REF_FRAME":"TEME","OBJECT_NAME":"STARLINK-5125","GP_ID":"230268208","FILE":"3889391","ECCENTRICITY":"0.00010550","PERIAPSIS":"539.022","MEAN_ANOMALY":"268.6403","BSTAR":"0.00089340000000","OBJECT_ID":"2022-125AG","MEAN_ELEMENT_THEORY":"SGP4","TIME_SYSTEM":"UTC","COUNTRY_CODE":"US","MEAN_MOTION_DDOT":"0.0000000000000","EPOCH":"2023-04-17T18:13:07.033152","LAUNCH_DATE":"2022-10-05","INCLINATION":"53.2150","REV_AT_EPOCH":"2990","ARG_OF_PERICENTER":"91.4710","PERIOD":"95.438","RCS_SIZE":"LARGE","CLASSIFICATION_TYPE":"U","ELEMENT_SET_NO":"999","SEMIMAJOR_AXIS":"6917.887","EPHEMERIS_TYPE":"0","TLE_LINE2":"2 53994  53.2150 278.7420 0001055  91.4710 268.6403 15.08837797 29905","APOAPSIS":"540.482","MEAN_MOTION":"15.08837797","CENTER_NAME":"EARTH","TLE_LINE1":"1 53994U 22125AG  23107.75910918  .00013958  00000-0  89340-3 0  9998","MEAN_MOTION_DOT":"0.00013958"},{"REF_FRAME":"TEME","NORAD_CAT_ID":"53995","OBJECT_TYPE":"PAYLOAD","SITE":"AFWTR","FILE":"3889391","GP_ID":"230266457","OBJECT_NAME":"STARLINK-5097","RA_OF_ASC_NODE":"278.7870","DECAY_DATE":null,"OBJECT_ID":"2022-125AH","BSTAR":"0.00019014000000","COUNTRY_CODE":"US","TIME_SYSTEM":"UTC","MEAN_ELEMENT_THEORY":"SGP4","ECCENTRICITY":"0.00009880","PERIAPSIS":"539.054","MEAN_ANOMALY":"264.2154","ELEMENT_SET_NO":"999","CLASSIFICATION_TYPE":"U","EPHEMERIS_TYPE":"0","SEMIMAJOR_AXIS":"6917.873","REV_AT_EPOCH":"2989","ARG_OF_PERICENTER":"95.8950","LAUNCH_DATE":"2022-10-05","INCLINATION":"53.2152","EPOCH":"2023-04-17T18:23:43.645632","MEAN_MOTION_DDOT":"0.0000000000000","PERIOD":"95.437","RCS_SIZE":"LARGE","TLE_LINE1":"1 53995U 22125AH  23107.76647738  .00002740  00000-0  19014-3 0  9995","MEAN_MOTION_DOT":"0.00002740","MEAN_MOTION":"15.08842506","TLE_LINE2":"2 53995  53.2152 278.7870 0000988  95.8950 264.2154 15.08842506 29892","APOAPSIS":"540.421","CENTER_NAME":"EARTH"},{"CLASSIFICATION_TYPE":"U","ELEMENT_SET_NO":"999","SEMIMAJOR_AXIS":"6917.861","EPHEMERIS_TYPE":"0","EPOCH":"2023-04-17T21:18:34.668000","MEAN_MOTION_DDOT":"0.0000000000000","LAUNCH_DATE":"2022-10-05","INCLINATION":"53.2159","REV_AT_EPOCH":"2992","ARG_OF_PERICENTER":"90.2398","RCS_SIZE":"LARGE","PERIOD":"95.437","TLE_LINE1":"1 53996U 22125AJ  23107.88790125  .00001993  00000-0  14326-3 0  9998","MEAN_MOTION_DOT":"0.00001993","APOAPSIS":"540.639","TLE_LINE2":"2 53996  53.2159 278.1235 0001320  90.2398 269.8746 15.08846456 29925","MEAN_MOTION":"15.08846456","CENTER_NAME":"EARTH","SITE":"AFWTR","OBJECT_TYPE":"PAYLOAD","NORAD_CAT_ID":"53996","REF_FRAME":"TEME","OBJECT_NAME":"STARLINK-5131","GP_ID":"230266707","FILE":"3889391","DECAY_DATE":null,"RA_OF_ASC_NODE":"278.1235","BSTAR":"0.00014326000000","OBJECT_ID":"2022-125AJ","MEAN_ELEMENT_THEORY":"SGP4","COUNTRY_CODE":"US","TIME_SYSTEM":"UTC","ECCENTRICITY":"0.00013200","PERIAPSIS":"538.812","MEAN_ANOMALY":"269.8746"},{"SEMIMAJOR_AXIS":"6917.857","EPHEMERIS_TYPE":"0","CLASSIFICATION_TYPE":"U","ELEMENT_SET_NO":"999","RCS_SIZE":"LARGE","PERIOD":"95.437","EPOCH":"2023-04-17T20:32:16.755936","MEAN_MOTION_DDOT":"0.0000000000000","INCLINATION":"53.2172","LAUNCH_DATE":"2022-10-05","REV_AT_EPOCH":"3005","ARG_OF_PERICENTER":"89.3119","MEAN_MOTION_DOT":"-0.00002226","TLE_LINE1":"1 53997U 22125AK  23107.85574949 -.00002226  00000-0 -12181-3 0  9999","CENTER_NAME":"EARTH","APOAPSIS":"540.580","TLE_LINE2":"2 53997  53.2172 268.6571 0001241  89.3119 270.8015 15.08847710 30051","MEAN_MOTION":"15.08847710","OBJECT_NAME":"STARLINK-5130","GP_ID":"230267959","FILE":"3889391","SITE":"AFWTR","OBJECT_TYPE":"PAYLOAD","NORAD_CAT_ID":"53997","REF_FRAME":"TEME","RA_OF_ASC_NODE":"268.6571","DECAY_DATE":null,"MEAN_ELEMENT_THEORY":"SGP4","TIME_SYSTEM":"UTC","COUNTRY_CODE":"US","BSTAR":"-0.00012181000000","OBJECT_ID":"2022-125AK","MEAN_ANOMALY":"270.8015","ECCENTRICITY":"0.00012410","PERIAPSIS":"538.863"},{"PERIAPSIS":"538.974","ECCENTRICITY":"0.00010510","MEAN_ANOMALY":"297.5158","BSTAR":"0.00075628000000","OBJECT_ID":"2022-125AL","MEAN_ELEMENT_THEORY":"SGP4","TIME_SYSTEM":"UTC","COUNTRY_CODE":"US","RA_OF_ASC_NODE":"278.6827","DECAY_DATE":null,"SITE":"AFWTR","OBJECT_TYPE":"PAYLOAD","NORAD_CAT_ID":"53998","REF_FRAME":"TEME","OBJECT_NAME":"STARLINK-5128","FILE":"3889391","GP_ID":"230267708","TLE_LINE2":"2 53998  53.2155 278.6827 0001051  62.5941 297.5158 15.08854362 29900","APOAPSIS":"540.429","MEAN_MOTION":"15.08854362","CENTER_NAME":"EARTH","TLE_LINE1":"1 53998U 22125AL  23107.74901173  .00011773  00000-0  75628-3 0  9991","MEAN_MOTION_DOT":"0.00011773","MEAN_MOTION_DDOT":"0.0000000000000","EPOCH":"2023-04-17T17:58:34.613472","LAUNCH_DATE":"2022-10-05","INCLINATION":"53.2155","REV_AT_EPOCH":"2990","ARG_OF_PERICENTER":"62.5941","PERIOD":"95.437","RCS_SIZE":"LARGE","CLASSIFICATION_TYPE":"U","ELEMENT_SET_NO":"999","SEMIMAJOR_AXIS":"6917.836","EPHEMERIS_TYPE":"0"}];
